{
  "norad_id": 43920,
  "name": "ZHONGXING-2D",
  "history": [
    {
      "epoch": "2026-03-28T22:14:58.027200Z",
      "apogee_km": 35790.75981630065,
      "perigee_km": 35784.286544149785,
      "latitude_deg": 0.011469319586525787,
      "longitude_deg": 129.99145995732354,
      "height_km": 35783.85599161764,
      "semi_major_axis_km": 42165.66018022522,
      "eccentricity": 7.676e-05,
      "inclination_deg": 0.0417,
      "raan_deg": 12.9911,
      "arg_perigee_deg": 289.0775,
      "mean_anomaly_deg": 347.9835,
      "mean_motion_rev_day": 1.00268474
    },
    {
      "epoch": "2026-03-29T05:05:25.484064Z",
      "apogee_km": 35790.81258573773,
      "perigee_km": 35784.29377003623,
      "latitude_deg": -0.015448441392409442,
      "longitude_deg": 129.99882823393546,
      "height_km": 35787.04456809971,
      "semi_major_axis_km": 42165.69017788698,
      "eccentricity": 7.73e-05,
      "inclination_deg": 0.0418,
      "raan_deg": 13.6506,
      "arg_perigee_deg": 289.1171,
      "mean_anomaly_deg": 90.1766,
      "mean_motion_rev_day": 1.00268367
    },
    {
      "epoch": "2026-03-29T23:55:01.036992Z",
      "apogee_km": 35790.66701837828,
      "perigee_km": 35784.62044542133,
      "latitude_deg": 0.010212933434267733,
      "longitude_deg": 129.98127544475068,
      "height_km": 35784.167007241886,
      "semi_major_axis_km": 42165.78073189981,
      "eccentricity": 7.17e-05,
      "inclination_deg": 0.0423,
      "raan_deg": 11.3629,
      "arg_perigee_deg": 293.9963,
      "mean_anomaly_deg": 10.7472,
      "mean_motion_rev_day": 1.00268044
    }
  ]
}